{
  "type": "FeatureCollection",
  "features": [
    {
      "type": "Feature",
      "properties": {
        "norad_id": 35918,
        "name": "IRIDIUM 33 DEB",
        "group": "iridium-33-debris",
        "lat": 62.23393578803984,
        "lon": -117.50752919223734,
        "alt_km": 694.985603595941,
        "timestamp": "2025-12-27T18:38:03.863031+00:00",
        "meta_object_name": "IRIDIUM 33 DEB",
        "meta_object_id": "1997-051UB",
        "meta_epoch": "2025-12-26T22:48:48.276864",
        "meta_mean_motion": 14.51362633,
        "meta_eccentricity": 0.002855,
        "meta_inclination": 86.3998,
        "meta_ra_of_asc_node": 69.7152,
        "meta_arg_of_pericenter": 124.3713,
        "meta_mean_anomaly": 0.7922,
        "meta_ephemeris_type": 0,
        "meta_classification_type": "U",
        "meta_norad_cat_id": 35918,
        "meta_element_set_no": 999,
        "meta_rev_at_epoch": 85413,
        "meta_bstar": 0.0012105,
        "meta_mean_motion_dot": 4.869e-05,
        "meta_mean_motion_ddot": 0,
        "tle_line1": "1 35918U 97051UB  25360.95055876  .00004869  00000+0  12105-2 0  9996",
        "tle_line2": "2 35918  86.3998  69.7152 0028550 124.3713   0.7922 14.51362633854137"
      },
      "geometry": {
        "type": "Point",
        "coordinates": [
          -117.50752919223734,
          62.23393578803984
        ]
      }
    },
    {
      "type": "Feature",
      "properties": {
        "norad_id": 35929,
        "name": "IRIDIUM 33 DEB",
        "group": "iridium-33-debris",
        "lat": 42.348186084357934,
        "lon": 122.14934819359192,
        "alt_km": 562.4240003223231,
        "timestamp": "2025-12-27T18:38:03.863041+00:00",
        "meta_object_name": "IRIDIUM 33 DEB",
        "meta_object_id": "1997-051UN",
        "meta_epoch": "2025-12-23T14:58:27.135552",
        "meta_mean_motion": 15.03115552,
        "meta_eccentricity": 0.00156026,
        "meta_inclination": 86.3353,
        "meta_ra_of_asc_node": 307.468,
        "meta_arg_of_pericenter": 2.5785,
        "meta_mean_anomaly": 357.5526,
        "meta_ephemeris_type": 0,
        "meta_classification_type": "U",
        "meta_norad_cat_id": 35929,
        "meta_element_set_no": 999,
        "meta_rev_at_epoch": 87943,
        "meta_bstar": 0.0026490117,
        "meta_mean_motion_dot": 0.00035991,
        "meta_mean_motion_ddot": 0,
        "tle_line1": "1 35929U 97051UN  25357.62392518  .00035991  00000+0  26490-2 0  9997",
        "tle_line2": "2 35929  86.3353 307.4680 0015602   2.5785 357.5526 15.03115552879439"
      },
      "geometry": {
        "type": "Point",
        "coordinates": [
          122.14934819359192,
          42.348186084357934
        ]
      }
    },
    {
      "type": "Feature",
      "properties": {
        "norad_id": 36011,
        "name": "IRIDIUM 33 DEB",
        "group": "iridium-33-debris",
        "lat": -10.450333621922315,
        "lon": 28.28892405914912,
        "alt_km": 771.9328536112371,
        "timestamp": "2025-12-27T18:38:03.863052+00:00",
        "meta_object_name": "IRIDIUM 33 DEB",
        "meta_object_id": "1997-051US",
        "meta_epoch": "2025-12-27T08:57:13.152960",
        "meta_mean_motion": 14.41372572,
        "meta_eccentricity": 0.0019178,
        "meta_inclination": 86.34,
        "meta_ra_of_asc_node": 29.1386,
        "meta_arg_of_pericenter": 167.3957,
        "meta_mean_anomaly": 250.5603,
        "meta_ephemeris_type": 0,
        "meta_classification_type": "U",
        "meta_norad_cat_id": 36011,
        "meta_element_set_no": 999,
        "meta_rev_at_epoch": 64751,
        "meta_bstar": 0.00048804,
        "meta_mean_motion_dot": 1.603e-05,
        "meta_mean_motion_ddot": 0,
        "tle_line1": "1 36011U 97051US  25361.37306890  .00001603  00000+0  48804-3 0  9992",
        "tle_line2": "2 36011  86.3400  29.1386 0019178 167.3957 250.5603 14.41372572647517"
      },
      "geometry": {
        "type": "Point",
        "coordinates": [
          28.28892405914912,
          -10.450333621922315
        ]
      }
    },
    {
      "type": "Feature",
      "properties": {
        "norad_id": 36012,
        "name": "IRIDIUM 33 DEB",
        "group": "iridium-33-debris",
        "lat": 24.73685287321685,
        "lon": 119.82525694472713,
        "alt_km": 748.1344353851664,
        "timestamp": "2025-12-27T18:38:03.863063+00:00",
        "meta_object_name": "IRIDIUM 33 DEB",
        "meta_object_id": "1997-051UT",
        "meta_epoch": "2025-12-23T02:12:50.688576",
        "meta_mean_motion": 14.19255751,
        "meta_eccentricity": 0.02111422,
        "meta_inclination": 86.4409,
        "meta_ra_of_asc_node": 303.3574,
        "meta_arg_of_pericenter": 229.8799,
        "meta_mean_anomaly": 128.3722,
        "meta_ephemeris_type": 0,
        "meta_classification_type": "U",
        "meta_norad_cat_id": 36012,
        "meta_element_set_no": 999,
        "meta_rev_at_epoch": 65631,
        "meta_bstar": 0.004288895,
        "meta_mean_motion_dot": 0.00011258,
        "meta_mean_motion_ddot": 0,
        "tle_line1": "1 36012U 97051UT  25357.09225334  .00011258  00000+0  42889-2 0  9993",
        "tle_line2": "2 36012  86.4409 303.3574 0211142 229.8799 128.3722 14.19255751656313"
      },
      "geometry": {
        "type": "Point",
        "coordinates": [
          119.82525694472713,
          24.73685287321685
        ]
      }
    },
    {
      "type": "Feature",
      "properties": {
        "norad_id": 36028,
        "name": "IRIDIUM 33 DEB",
        "group": "iridium-33-debris",
        "lat": 52.060951364334386,
        "lon": -55.6437505055773,
        "alt_km": 565.1488017353868,
        "timestamp": "2025-12-27T18:38:03.863074+00:00",
        "meta_object_name": "IRIDIUM 33 DEB",
        "meta_object_id": "1997-051VK",
        "meta_epoch": "2025-12-24T13:20:34.772064",
        "meta_mean_motion": 14.95853711,
        "meta_eccentricity": 0.001968,
        "meta_inclination": 86.323,
        "meta_ra_of_asc_node": 301.1398,
        "meta_arg_of_pericenter": 16.6795,
        "meta_mean_anomaly": 343.5078,
        "meta_ephemeris_type": 0,
        "meta_classification_type": "U",
        "meta_norad_cat_id": 36028,
        "meta_element_set_no": 999,
        "meta_rev_at_epoch": 87301,
        "meta_bstar": 0.0024246454,
        "meta_mean_motion_dot": 0.00027287,
        "meta_mean_motion_ddot": 0,
        "tle_line1": "1 36028U 97051VK  25358.55595801  .00027287  00000+0  24246-2 0  9997",
        "tle_line2": "2 36028  86.3230 301.1398 0019680  16.6795 343.5078 14.95853711873019"
      },
      "geometry": {
        "type": "Point",
        "coordinates": [
          -55.6437505055773,
          52.060951364334386
        ]
      }
    },
    {
      "type": "Feature",
      "properties": {
        "norad_id": 36080,
        "name": "IRIDIUM 33 DEB",
        "group": "iridium-33-debris",
        "lat": 38.8501251845224,
        "lon": 178.46444821090242,
        "alt_km": 722.483009407345,
        "timestamp": "2025-12-27T18:38:03.863084+00:00",
        "meta_object_name": "IRIDIUM 33 DEB",
        "meta_object_id": "1997-051VM",
        "meta_epoch": "2025-12-19T07:27:26.572608",
        "meta_mean_motion": 14.4663152,
        "meta_eccentricity": 0.0018893,
        "meta_inclination": 86.3193,
        "meta_ra_of_asc_node": 5.1242,
        "meta_arg_of_pericenter": 135.9522,
        "meta_mean_anomaly": 224.319,
        "meta_ephemeris_type": 0,
        "meta_classification_type": "U",
        "meta_norad_cat_id": 36080,
        "meta_element_set_no": 999,
        "meta_rev_at_epoch": 47509,
        "meta_bstar": 0.00042458,
        "meta_mean_motion_dot": 1.555e-05,
        "meta_mean_motion_ddot": 0,
        "tle_line1": "1 36080U 97051VM  25353.31072422  .00001555  00000+0  42458-3 0  9999",
        "tle_line2": "2 36080  86.3193   5.1242 0018893 135.9522 224.3190 14.46631520475097"
      },
      "geometry": {
        "type": "Point",
        "coordinates": [
          178.46444821090242,
          38.8501251845224
        ]
      }
    },
    {
      "type": "Feature",
      "properties": {
        "norad_id": 36083,
        "name": "IRIDIUM 33 DEB",
        "group": "iridium-33-debris",
        "lat": 48.65261736165811,
        "lon": 31.847136618870824,
        "alt_km": 753.8330611100291,
        "timestamp": "2025-12-27T18:38:03.863094+00:00",
        "meta_object_name": "IRIDIUM 33 DEB",
        "meta_object_id": "1997-051VQ",
        "meta_epoch": "2025-12-24T08:52:23.766528",
        "meta_mean_motion": 14.43245731,
        "meta_eccentricity": 0.00265084,
        "meta_inclination": 86.3425,
        "meta_ra_of_asc_node": 29.1454,
        "meta_arg_of_pericenter": 183.5397,
        "meta_mean_anomaly": 176.562,
        "meta_ephemeris_type": 0,
        "meta_classification_type": "U",
        "meta_norad_cat_id": 36083,
        "meta_element_set_no": 999,
        "meta_rev_at_epoch": 85617,
        "meta_bstar": 0.00051614904,
        "meta_mean_motion_dot": 1.763e-05,
        "meta_mean_motion_ddot": 0,
        "tle_line1": "1 36083U 97051VQ  25358.36971952  .00001763  00000+0  51615-3 0  9994",
        "tle_line2": "2 36083  86.3425  29.1454 0026508 183.5397 176.5620 14.43245731856170"
      },
      "geometry": {
        "type": "Point",
        "coordinates": [
          31.847136618870824,
          48.65261736165811
        ]
      }
    }
  ]
}